[
  {
    "OBJECT_NAME": "STARLINK-5016",
    "OBJECT_ID": "23046BD",
    "EPOCH": "2025-11-10T08:18:14.883840",
    "MEAN_MOTION": 15.02537379,
    "ECCENTRICITY": 0.0001276,
    "INCLINATION": 43.0049,
    "RA_OF_ASC_NODE": 74.0966,
    "ARG_OF_PERICENTER": 267.6988,
    "MEAN_ANOMALY": 92.3708,
    "EPHEMERIS_TYPE": 0,
    "CLASSIFICATION_TYPE": "U",
    "NORAD_CAT_ID": 56143,
    "ELEMENT_SET_NO": 999,
    "REV_AT_EPOCH": 14426,
    "BSTAR": 7.7826e-05,
    "MEAN_MOTION_DOT": 8.48e-06,
    "MEAN_MOTION_DDOT": 0.0,
    "TLE_LINE1": "1 56143U 23046BD  25314.34600560  .00000848  00000+0  77826-4 0  9996",
    "TLE_LINE2": "2 56143  43.0049  74.0966 0001276 267.6988  92.3708 15.02537379144263",
    "COMMENT": "Grouped by shell and plane from TLE"
  },
  {
    "OBJECT_NAME": "STARLINK-5374",
    "OBJECT_ID": "23046BE",
    "EPOCH": "2025-11-11T00:34:41.985120",
    "MEAN_MOTION": 15.0253909,
    "ECCENTRICITY": 0.00013,
    "INCLINATION": 43.0053,
    "RA_OF_ASC_NODE": 70.5865,
    "ARG_OF_PERICENTER": 274.7538,
    "MEAN_ANOMALY": 85.3156,
    "EPHEMERIS_TYPE": 0,
    "CLASSIFICATION_TYPE": "U",
    "NORAD_CAT_ID": 56144,
    "ELEMENT_SET_NO": 999,
    "REV_AT_EPOCH": 14436,
    "BSTAR": 7.644800000000001e-05,
    "MEAN_MOTION_DOT": 8.29e-06,
    "MEAN_MOTION_DDOT": 0.0,
    "TLE_LINE1": "1 56144U 23046BE  25315.02409705  .00000829  00000+0  76448-4 0  9999",
    "TLE_LINE2": "2 56144  43.0053  70.5865 0001300 274.7538  85.3156 15.02539090144368",
    "COMMENT": "Grouped by shell and plane from TLE"
  },
  {
    "OBJECT_NAME": "STARLINK-5111",
    "OBJECT_ID": "23046BG",
    "EPOCH": "2025-11-10T17:55:48.200160",
    "MEAN_MOTION": 15.02526813,
    "ECCENTRICITY": 0.0002312,
    "INCLINATION": 43.004,
    "RA_OF_ASC_NODE": 71.9442,
    "ARG_OF_PERICENTER": 274.3919,
    "MEAN_ANOMALY": 85.6659,
    "EPHEMERIS_TYPE": 0,
    "CLASSIFICATION_TYPE": "U",
    "NORAD_CAT_ID": 56146,
    "ELEMENT_SET_NO": 999,
    "REV_AT_EPOCH": 14432,
    "BSTAR": 0.0,
    "MEAN_MOTION_DOT": -2.446e-05,
    "MEAN_MOTION_DDOT": 0.0,
    "TLE_LINE1": "1 56146U 23046BG  25314.74708565 -.00002446  00000+0 -16605-3 0  9992",
    "TLE_LINE2": "2 56146  43.0040  71.9442 0002312 274.3919  85.6659 15.02526813144321",
    "COMMENT": "Grouped by shell and plane from TLE"
  },
  {
    "OBJECT_NAME": "STARLINK-30791",
    "OBJECT_ID": "23167C",
    "EPOCH": "2025-11-11T00:12:22.482720",
    "MEAN_MOTION": 15.02544319,
    "ECCENTRICITY": 0.0001535,
    "INCLINATION": 43.004,
    "RA_OF_ASC_NODE": 70.7158,
    "ARG_OF_PERICENTER": 276.3727,
    "MEAN_ANOMALY": 83.694,
    "EPHEMERIS_TYPE": 0,
    "CLASSIFICATION_TYPE": "U",
    "NORAD_CAT_ID": 58177,
    "ELEMENT_SET_NO": 999,
    "REV_AT_EPOCH": 11310,
    "BSTAR": 0.00013076,
    "MEAN_MOTION_DOT": 1.563e-05,
    "MEAN_MOTION_DDOT": 0.0,
    "TLE_LINE1": "1 58177U 23167C   25315.00859355  .00001563  00000+0  13076-3 0  9992",
    "TLE_LINE2": "2 58177  43.0040  70.7158 0001535 276.3727  83.6940 15.02544319113107",
    "COMMENT": "Grouped by shell and plane from TLE"
  },
  {
    "OBJECT_NAME": "STARLINK-30821",
    "OBJECT_ID": "23167G",
    "EPOCH": "2025-11-10T09:46:02.801568",
    "MEAN_MOTION": 15.02514827,
    "ECCENTRICITY": 4.18e-05,
    "INCLINATION": 43.002,
    "RA_OF_ASC_NODE": 73.9336,
    "ARG_OF_PERICENTER": 233.7638,
    "MEAN_ANOMALY": 126.3166,
    "EPHEMERIS_TYPE": 0,
    "CLASSIFICATION_TYPE": "U",
    "NORAD_CAT_ID": 58181,
    "ELEMENT_SET_NO": 999,
    "REV_AT_EPOCH": 11301,
    "BSTAR": 0.00059507,
    "MEAN_MOTION_DOT": 7.839e-05,
    "MEAN_MOTION_DDOT": 0.0,
    "TLE_LINE1": "1 58181U 23167G   25314.40697687  .00007839  00000+0  59507-3 0  9999",
    "TLE_LINE2": "2 58181  43.0020  73.9336 0000418 233.7638 126.3166 15.02514827113016",
    "COMMENT": "Grouped by shell and plane from TLE"
  },
  {
    "OBJECT_NAME": "STARLINK-30778",
    "OBJECT_ID": "23167H",
    "EPOCH": "2025-11-10T16:04:07.666752",
    "MEAN_MOTION": 15.02565321,
    "ECCENTRICITY": 9.73e-05,
    "INCLINATION": 43.0029,
    "RA_OF_ASC_NODE": 72.4693,
    "ARG_OF_PERICENTER": 274.0134,
    "MEAN_ANOMALY": 86.0597,
    "EPHEMERIS_TYPE": 0,
    "CLASSIFICATION_TYPE": "U",
    "NORAD_CAT_ID": 58182,
    "ELEMENT_SET_NO": 999,
    "REV_AT_EPOCH": 11305,
    "BSTAR": 0.00028678,
    "MEAN_MOTION_DOT": 3.675e-05,
    "MEAN_MOTION_DDOT": 0.0,
    "TLE_LINE1": "1 58182U 23167H   25314.66953318  .00003675  00000+0  28678-3 0  9993",
    "TLE_LINE2": "2 58182  43.0029  72.4693 0000973 274.0134  86.0597 15.02565321113050",
    "COMMENT": "Grouped by shell and plane from TLE"
  },
  {
    "OBJECT_NAME": "STARLINK-30793",
    "OBJECT_ID": "23167L",
    "EPOCH": "2025-11-10T14:23:37.380480",
    "MEAN_MOTION": 15.0253618,
    "ECCENTRICITY": 0.0001433,
    "INCLINATION": 43.003,
    "RA_OF_ASC_NODE": 72.8051,
    "ARG_OF_PERICENTER": 265.6354,
    "MEAN_ANOMALY": 94.4325,
    "EPHEMERIS_TYPE": 0,
    "CLASSIFICATION_TYPE": "U",
    "NORAD_CAT_ID": 58185,
    "ELEMENT_SET_NO": 999,
    "REV_AT_EPOCH": 11304,
    "BSTAR": 0.0001262,
    "MEAN_MOTION_DOT": 1.501e-05,
    "MEAN_MOTION_DDOT": 0.0,
    "TLE_LINE1": "1 58185U 23167L   25314.59973820  .00001501  00000+0  12620-3 0  9994",
    "TLE_LINE2": "2 58185  43.0030  72.8051 0001433 265.6354  94.4325 15.02536180113041",
    "COMMENT": "Grouped by shell and plane from TLE"
  },
  {
    "OBJECT_NAME": "STARLINK-30760",
    "OBJECT_ID": "23167N",
    "EPOCH": "2025-11-10T14:18:49.980384",
    "MEAN_MOTION": 15.02538685,
    "ECCENTRICITY": 0.0001369,
    "INCLINATION": 42.9988,
    "RA_OF_ASC_NODE": 72.7743,
    "ARG_OF_PERICENTER": 273.8565,
    "MEAN_ANOMALY": 86.2121,
    "EPHEMERIS_TYPE": 0,
    "CLASSIFICATION_TYPE": "U",
    "NORAD_CAT_ID": 58187,
    "ELEMENT_SET_NO": 999,
    "REV_AT_EPOCH": 11304,
    "BSTAR": 2.4806000000000003e-05,
    "MEAN_MOTION_DOT": 1.32e-06,
    "MEAN_MOTION_DDOT": 0.0,
    "TLE_LINE1": "1 58187U 23167N   25314.59641181  .00000132  00000+0  24806-4 0  9997",
    "TLE_LINE2": "2 58187  42.9988  72.7743 0001369 273.8565  86.2121 15.02538685113048",
    "COMMENT": "Grouped by shell and plane from TLE"
  },
  {
    "OBJECT_NAME": "STARLINK-30785",
    "OBJECT_ID": "23167S",
    "EPOCH": "2025-11-11T00:31:33.179520",
    "MEAN_MOTION": 15.02534674,
    "ECCENTRICITY": 0.000128,
    "INCLINATION": 43.0036,
    "RA_OF_ASC_NODE": 70.8163,
    "ARG_OF_PERICENTER": 272.8573,
    "MEAN_ANOMALY": 87.2123,
    "EPHEMERIS_TYPE": 0,
    "CLASSIFICATION_TYPE": "U",
    "NORAD_CAT_ID": 58191,
    "ELEMENT_SET_NO": 999,
    "REV_AT_EPOCH": 11310,
    "BSTAR": 3.1071e-05,
    "MEAN_MOTION_DOT": 2.16e-06,
    "MEAN_MOTION_DDOT": 0.0,
    "TLE_LINE1": "1 58191U 23167S   25315.02191180  .00000216  00000+0  31071-4 0  9995",
    "TLE_LINE2": "2 58191  43.0036  70.8163 0001280 272.8573  87.2123 15.02534674113108",
    "COMMENT": "Grouped by shell and plane from TLE"
  },
  {
    "OBJECT_NAME": "STARLINK-30822",
    "OBJECT_ID": "23167U",
    "EPOCH": "2025-11-11T00:26:45.528000",
    "MEAN_MOTION": 15.02536843,
    "ECCENTRICITY": 0.0001273,
    "INCLINATION": 43.0039,
    "RA_OF_ASC_NODE": 70.7865,
    "ARG_OF_PERICENTER": 276.2968,
    "MEAN_ANOMALY": 83.7729,
    "EPHEMERIS_TYPE": 0,
    "CLASSIFICATION_TYPE": "U",
    "NORAD_CAT_ID": 58193,
    "ELEMENT_SET_NO": 999,
    "REV_AT_EPOCH": 11310,
    "BSTAR": 3.5926e-05,
    "MEAN_MOTION_DOT": 2.82e-06,
    "MEAN_MOTION_DDOT": 0.0,
    "TLE_LINE1": "1 58193U 23167U   25315.01858250  .00000282  00000+0  35926-4 0  9990",
    "TLE_LINE2": "2 58193  43.0039  70.7865 0001273 276.2968  83.7729 15.02536843113102",
    "COMMENT": "Grouped by shell and plane from TLE"
  },
  {
    "OBJECT_NAME": "STARLINK-30830",
    "OBJECT_ID": "23167V",
    "EPOCH": "2025-11-11T00:20:21.690816",
    "MEAN_MOTION": 15.02540911,
    "ECCENTRICITY": 0.0001206,
    "INCLINATION": 43.0035,
    "RA_OF_ASC_NODE": 70.7354,
    "ARG_OF_PERICENTER": 272.9662,
    "MEAN_ANOMALY": 87.1042,
    "EPHEMERIS_TYPE": 0,
    "CLASSIFICATION_TYPE": "U",
    "NORAD_CAT_ID": 58194,
    "ELEMENT_SET_NO": 999,
    "REV_AT_EPOCH": 11310,
    "BSTAR": 0.0,
    "MEAN_MOTION_DOT": -7.46e-06,
    "MEAN_MOTION_DDOT": 0.0,
    "TLE_LINE1": "1 58194U 23167V   25315.01413994 -.00000746  00000+0 -40140-4 0  9994",
    "TLE_LINE2": "2 58194  43.0035  70.7354 0001206 272.9662  87.1042 15.02540911113109",
    "COMMENT": "Grouped by shell and plane from TLE"
  },
  {
    "OBJECT_NAME": "STARLINK-30827",
    "OBJECT_ID": "23167W",
    "EPOCH": "2025-11-11T00:17:10.013280",
    "MEAN_MOTION": 15.02538263,
    "ECCENTRICITY": 0.0001329,
    "INCLINATION": 43.0038,
    "RA_OF_ASC_NODE": 70.7428,
    "ARG_OF_PERICENTER": 268.4788,
    "MEAN_ANOMALY": 91.5902,
    "EPHEMERIS_TYPE": 0,
    "CLASSIFICATION_TYPE": "U",
    "NORAD_CAT_ID": 58195,
    "ELEMENT_SET_NO": 999,
    "REV_AT_EPOCH": 11310,
    "BSTAR": 0.00010174,
    "MEAN_MOTION_DOT": 1.171e-05,
    "MEAN_MOTION_DDOT": 0.0,
    "TLE_LINE1": "1 58195U 23167W   25315.01192145  .00001171  00000+0  10174-3 0  9991",
    "TLE_LINE2": "2 58195  43.0038  70.7428 0001329 268.4788  91.5902 15.02538263113101",
    "COMMENT": "Grouped by shell and plane from TLE"
  },
  {
    "OBJECT_NAME": "STARLINK-30762",
    "OBJECT_ID": "23167Y",
    "EPOCH": "2025-11-11T00:21:57.167136",
    "MEAN_MOTION": 15.02545794,
    "ECCENTRICITY": 0.0001355,
    "INCLINATION": 43.0053,
    "RA_OF_ASC_NODE": 70.7594,
    "ARG_OF_PERICENTER": 268.9386,
    "MEAN_ANOMALY": 91.1301,
    "EPHEMERIS_TYPE": 0,
    "CLASSIFICATION_TYPE": "U",
    "NORAD_CAT_ID": 58197,
    "ELEMENT_SET_NO": 999,
    "REV_AT_EPOCH": 11310,
    "BSTAR": 0.00016466,
    "MEAN_MOTION_DOT": 2.022e-05,
    "MEAN_MOTION_DDOT": 0.0,
    "TLE_LINE1": "1 58197U 23167Y   25315.01524499  .00002022  00000+0  16466-3 0  9990",
    "TLE_LINE2": "2 58197  43.0053  70.7594 0001355 268.9386  91.1301 15.02545794113108",
    "COMMENT": "Grouped by shell and plane from TLE"
  }
]